     2.100          NAVIGATION                              RINEX VERSION / TYPE
fic2rin                                 03/23/2017 00:19:59 PGM / RUN BY / DATE
                                                            END OF HEADER
23 17  3 22  8  0  0.0 -.208133365959D-03 -.909494701773D-12  .000000000000D+00
     .980000000000D+02  .124062500000D+02  .506413951317D-08 -.116614814193D+01
     .569969415665D-06  .113915797556D-01  .634603202343D-05  .515377222443D+04
     .288000000000D+06  .292435288429D-06  .817222114638D+00  .167638063431D-07
     .944715608111D+00  .245750000000D+03 -.249005126623D+01 -.825962976102D-08
    -.196793911542D-09  .100000000000D+01  .194100000000D+04  .000000000000D+00
     .340000000000D+01  .000000000000D+00 -.200234353542D-07  .980000000000D+02
     .280806000000D+06  .400000000000D+01
24 17  3 22  8  0  0.0 -.322391279042D-04 -.568434188608D-12  .000000000000D+00
     .450000000000D+02  .129687500000D+02  .463840749400D-08 -.182238651012D+01
     .692903995514D-06  .561988248955D-02  .892207026482D-05  .515370125580D+04
     .288000000000D+06 -.707805156708D-07  .184142001792D+01 -.115483999252D-06
     .945806702154D+00  .199875000000D+03  .475615215717D+00 -.805033532878D-08
    -.282868925483D-09  .100000000000D+01  .194100000000D+04  .000000000000D+00
     .240000000000D+01  .000000000000D+00  .232830643654D-08  .450000000000D+02
     .280806000000D+06  .400000000000D+01
25 17  3 22  8  0  0.0 -.356527976692D-03 -.670752342558D-11  .000000000000D+00
     .540000000000D+02  .582812500000D+02  .395909348356D-08  .249769526774D+01
     .305101275444D-05  .635945703834D-02  .752322375774D-05  .515361932564D+04
     .288000000000D+06 -.279396772385D-07  .292195636227D+01 -.111758708954D-06
     .977740009447D+00  .242812500000D+03  .772484755834D+00 -.783139763772D-08
     .212866009581D-09  .100000000000D+01  .194100000000D+04  .000000000000D+00
     .240000000000D+01  .000000000000D+00  .558793544769D-08  .540000000000D+02
     .280806000000D+06  .400000000000D+01
26 17  3 22  8  0  0.0 -.517665874213D-03  .159161572810D-11  .000000000000D+00
     .100000000000D+02  .564687500000D+02  .441411243693D-08  .195979155008D+01
     .296160578728D-05  .179661845323D-02  .693090260029D-05  .515367947006D+04
     .288000000000D+06  .186264514923D-08  .290771694089D+01  .372529029846D-07
     .959537020728D+00  .244593750000D+03  .132185005922D-01 -.812783855710D-08
     .130005415247D-09  .100000000000D+01  .194100000000D+04  .000000000000D+00
     .240000000000D+01  .000000000000D+00  .698491930962D-08  .100000000000D+02
     .280806000000D+06  .400000000000D+01
27 17  3 22  8  0  0.0  .228062737733D-03  .613908923697D-11  .000000000000D+00
     .600000000000D+02 -.280937500000D+02  .442661295763D-08  .194937301178D+00
    -.144727528095D-05  .456352205947D-02  .414438545704D-05  .515366023636D+04
     .288000000000D+06  .409781932831D-07 -.232177665939D+01  .111758708954D-07
     .974228284839D+00  .306937500000D+03  .295764165068D+00 -.822284251440D-08
     .525021869268D-10  .100000000000D+01  .194100000000D+04  .000000000000D+00
     .240000000000D+01  .000000000000D+00  .186264514923D-08  .600000000000D+02
     .280806000000D+06  .400000000000D+01
28 17  3 22  8  0  0.0  .598863232881D-03  .295585778076D-11  .000000000000D+00
     .170000000000D+02  .561875000000D+02  .395980779903D-08  .974644046157D+00
     .278092920780D-05  .198119448032D-01  .671111047268D-05  .515364552498D+04
     .288000000000D+06 -.292435288429D-06  .299987130310D+01 -.234693288803D-06
     .989047358250D+00  .266906250000D+03 -.157148738150D+01 -.820355599675D-08
     .180721813503D-09  .100000000000D+01  .194100000000D+04  .000000000000D+00
     .240000000000D+01  .000000000000D+00 -.111758708954D-07  .170000000000D+02
     .280806000000D+06  .400000000000D+01
29 17  3 22  8  0  0.0  .618548598140D-03 -.284217094304D-11  .000000000000D+00
     .240000000000D+02 -.240000000000D+02  .425839166482D-08  .219790655506D+01
    -.136904418468D-05  .692816684023D-03  .405125319958D-05  .515365637398D+04
     .288000000000D+06  .316649675369D-07 -.226011388700D+01  .353902578354D-07
     .980370868656D+00  .308843750000D+03 -.134132618019D-01 -.810569477758D-08
     .106790162525D-09  .100000000000D+01  .194100000000D+04  .000000000000D+00
     .240000000000D+01  .000000000000D+00 -.102445483208D-07  .240000000000D+02
     .280806000000D+06  .400000000000D+01
30 17  3 22  8  0  0.0  .159988645464D-03 -.341060513165D-12  .000000000000D+00
     .640000000000D+02  .365312500000D+02  .461554939902D-08 -.261950800747D+01
     .186078250408D-05  .254172319546D-02  .913999974728D-05  .515370423126D+04
     .288000000000D+06 -.745058059692D-08  .193364465140D+01 -.167638063431D-07
     .948530380589D+00  .197562500000D+03  .305321107226D+01 -.806533595362D-08
    -.260010830495D-09  .100000000000D+01  .194100000000D+04  .000000000000D+00
     .240000000000D+01  .000000000000D+00  .372529029846D-08  .640000000000D+02
     .280806000000D+06  .400000000000D+01
31 17  3 22  8  0  0.0  .211988110095D-03 -.227373675443D-11  .000000000000D+00
     .109000000000D+03  .212500000000D+02  .419838916547D-08 -.286919050174D+01
     .113062560558D-05  .849744677544D-02  .869110226631D-05  .515367333031D+04
     .288000000000D+06 -.614672899246D-07  .190441140373D+01  .931322574615D-07
     .967534975270D+00  .218156250000D+03 -.268460797464D+00 -.781961143249D-08
    -.294655130712D-09  .100000000000D+01  .194100000000D+04  .000000000000D+00
     .240000000000D+01  .000000000000D+00 -.135041773319D-07  .109000000000D+03
     .280806000000D+06  .400000000000D+01
32 17  3 22  8  0  0.0 -.360410194844D-03 -.125055521494D-10  .000000000000D+00
     .420000000000D+02  .124375000000D+02  .484413034890D-08  .947893604533D+00
     .709667801857D-06  .908264308237D-03  .639632344246D-05  .515370352554D+04
     .288000000000D+06  .260770320892D-07  .817650967610D+00 -.558793544769D-08
     .958345487119D+00  .255031250000D+03 -.274229865966D+01 -.824070040111D-08
    -.188579283656D-09  .100000000000D+01  .194100000000D+04  .000000000000D+00
     .240000000000D+01  .000000000000D+00  .465661287308D-09  .420000000000D+02
     .280806000000D+06  .400000000000D+01
22 17  3 22  7 59 44.0  .654901377857D-04 -.118234311230D-10  .000000000000D+00
     .500000000000D+01  .105937500000D+02  .554880255847D-08 -.407781356016D+00
     .605359673500D-06  .751762173604D-02  .861100852489D-05  .515355767632D+04
     .287984000000D+06 -.875443220139D-07 -.265165499882D+00  .484287738800D-07
     .923844774689D+00  .192812500000D+03 -.178442225429D+01 -.862035907256D-08
     .240724312848D-09  .100000000000D+01  .194100000000D+04  .000000000000D+00
     .240000000000D+01  .000000000000D+00 -.176951289177D-07  .500000000000D+01
     .281016000000D+06  .400000000000D+01
 4 17  3 22  7 59 44.0  .825617462397D-06  .454747350886D-12  .000000000000D+00
     .230000000000D+02  .525937500000D+02  .520628829138D-08  .123284533476D+01
     .274740159512D-05  .905146414880D-02  .718422234058D-05  .515374297333D+04
     .287984000000D+06 -.119209289551D-06  .294492915297D+01  .763684511185D-07
     .982546153231D+00  .252437500000D+03  .881791896892D+00 -.800533345427D-08
     .903609067516D-10  .100000000000D+01  .194100000000D+04  .000000000000D+00
     .240000000000D+01  .630000000000D+02 -.195577740669D-07  .230000000000D+02
     .281706000000D+06  .400000000000D+01
23 17  3 22  7 59 44.0 -.208133365959D-03 -.909494701773D-12  .000000000000D+00
     .200000000000D+02  .124062500000D+02  .506413951317D-08 -.116848189710D+01
     .569969415665D-06  .113915828988D-01  .634603202343D-05  .515377222061D+04
     .287984000000D+06  .292435288429D-06  .817222253616D+00  .167638063431D-07
     .944715619815D+00  .245750000000D+03 -.249005110238D+01 -.825962976102D-08
    -.197151069276D-09  .100000000000D+01  .194100000000D+04  .000000000000D+00
     .240000000000D+01  .000000000000D+00 -.200234353542D-07  .200000000000D+02
     .284706000000D+06  .400000000000D+01
31 17  3 22  7 59 44.0  .211990904063D-03 -.227373675443D-11  .000000000000D+00
     .170000000000D+02  .212500000000D+02  .419838916547D-08 -.287152390874D+01
     .113062560558D-05  .849744467996D-02  .869110226631D-05  .515367333221D+04
     .287984000000D+06 -.614672899246D-07  .190441153100D+01  .931322574615D-07
     .967534982584D+00  .218156250000D+03 -.268461119306D+00 -.781961143249D-08
    -.294655130712D-09  .100000000000D+01  .194100000000D+04  .000000000000D+00
     .240000000000D+01  .000000000000D+00 -.135041773319D-07  .170000000000D+02
     .284916000000D+06  .400000000000D+01
16 17  3 22  7 59 44.0  .295061618090D-04  .909494701773D-12  .000000000000D+00
     .120000000000D+02  .575937500000D+02  .375122768226D-08  .107090633646D+01
     .312179327011D-05  .931340584066D-02  .664964318275D-05  .515366987228D+04
     .287984000000D+06 -.670552253723D-07  .299523724530D+01  .124797224998D-06
     .990270638644D+00  .266468750000D+03  .416272935690D+00 -.785461289044D-08
     .632169189527D-10  .100000000000D+01  .194100000000D+04  .000000000000D+00
     .240000000000D+01  .000000000000D+00 -.107102096081D-07  .120000000000D+02
     .287736000000D+06  .400000000000D+01
16 17  3 22  9 59 44.0  .295131467283D-04  .909494701773D-12  .000000000000D+00
     .300000000000D+02  .568437500000D+02  .373301263782D-08  .212098743427D+01
     .292807817459D-05  .931383273564D-02  .721961259842D-05  .515367152786D+04
     .295184000000D+06 -.189989805222D-06  .299518042264D+01  .409781932831D-07
     .990271400824D+00  .257187500000D+03  .416368666123D+00 -.778532429001D-08
     .127148153374D-09  .100000000000D+01  .194100000000D+04  .000000000000D+00
     .240000000000D+01  .000000000000D+00 -.107102096081D-07  .300000000000D+02
     .288006000000D+06  .400000000000D+01
